{"type": "FeatureCollection", "features": [ {"type": "Feature", "properties": {"norad_id": 37528, "name": "COSMOS 2251 DEB", "group": "cosmos-2251-debris", "lat": -13.662608122997922, "lon": -46.353137811752596, "alt_km": 726.5742935937005, "timestamp": "2025-12-08T17:43:05.335769+00:00", "meta": {"OBJECT_NAME": "COSMOS 2251 DEB", "OBJECT_ID": "1993-036BNH", "EPOCH": "2025-12-06T16:49:14.647872", "MEAN_MOTION": 14.5048578, "ECCENTRICITY": 0.00209458, "INCLINATION": 74.0353, "RA_OF_ASC_NODE": 133.4841, "ARG_OF_PERICENTER": 282.1287, "MEAN_ANOMALY": 77.7527, "EPHEMERIS_TYPE": 0, "CLASSIFICATION_TYPE": "U", "NORAD_CAT_ID": 37528, "ELEMENT_SET_NO": 999, "REV_AT_EPOCH": 85843, "BSTAR": 0.00085302244, "MEAN_MOTION_DOT": 3.32e-05, "MEAN_MOTION_DDOT": 0}, "tle": {"line1": "1 37528U 93036BNH 25340.70086398  .00003320  00000+0  85302-3 0  9999", "line2": "2 37528  74.0353 133.4841 0020945 282.1287  77.7527 14.50485780858438"}}, "geometry": {"type": "Point", "coordinates": [-46.353137811752596, -13.662608122997922]}}, {"type": "Feature", "properties": {"norad_id": 37530, "name": "COSMOS 2251 DEB", "group": "cosmos-2251-debris", "lat": -25.78851631168485, "lon": -26.973057362231604, "alt_km": 776.3271349502838, "timestamp": "2025-12-08T17:43:05.335780+00:00", "meta": {"OBJECT_NAME": "COSMOS 2251 DEB", "OBJECT_ID": "1993-036BNK", "EPOCH": "2025-11-30T19:50:14.646624", "MEAN_MOTION": 14.34478642, "ECCENTRICITY": 0.00255427, "INCLINATION": 74.0356, "RA_OF_ASC_NODE": 355.4602, "ARG_OF_PERICENTER": 61.4891, "MEAN_ANOMALY": 111.2815, "EPHEMERIS_TYPE": 0, "CLASSIFICATION_TYPE": "U", "NORAD_CAT_ID": 37530, "ELEMENT_SET_NO": 999, "REV_AT_EPOCH": 85061, "BSTAR": 0.00021143929, "MEAN_MOTION_DOT": 5.72e-06, "MEAN_MOTION_DDOT": 0}, "tle": {"line1": "1 37530U 93036BNK 25334.82655841  .00000572  00000+0  21144-3 0  9993", "line2": "2 37530  74.0356 355.4602 0025542  61.4891 111.2815 14.34478642850619"}}, "geometry": {"type": "Point", "coordinates": [-26.973057362231604, -25.78851631168485]}}, {"type": "Feature", "properties": {"norad_id": 37532, "name": "COSMOS 2251 DEB", "group": "cosmos-2251-debris", "lat": 0.017721331279758574, "lon": -136.858004932311, "alt_km": 744.0446776792287, "timestamp": "2025-12-08T17:43:05.335791+00:00", "meta": {"OBJECT_NAME": "COSMOS 2251 DEB", "OBJECT_ID": "1993-036BNM", "EPOCH": "2025-12-07T10:55:32.240064", "MEAN_MOTION": 14.42395579, "ECCENTRICITY": 0.00158251, "INCLINATION": 74.0509, "RA_OF_ASC_NODE": 225.5137, "ARG_OF_PERICENTER": 327.0165, "MEAN_ANOMALY": 213.451, "EPHEMERIS_TYPE": 0, "CLASSIFICATION_TYPE": "U", "NORAD_CAT_ID": 37532, "ELEMENT_SET_NO": 999, "REV_AT_EPOCH": 84839, "BSTAR": 0.00041437252, "MEAN_MOTION_DOT": 1.346e-05, "MEAN_MOTION_DDOT": 0}, "tle": {"line1": "1 37532U 93036BNM 25341.45523426  .00001346  00000+0  41437-3 0  9992", "line2": "2 37532  74.0509 225.5137 0015825 327.0165 213.4510 14.42395579848394"}}, "geometry": {"type": "Point", "coordinates": [-136.858004932311, 0.017721331279758574]}}, {"type": "Feature", "properties": {"norad_id": 37533, "name": "COSMOS 2251 DEB", "group": "cosmos-2251-debris", "lat": 13.891292789196921, "lon": 14.80809486642721, "alt_km": 852.7902486405601, "timestamp": "2025-12-08T17:43:05.335802+00:00", "meta": {"OBJECT_NAME": "COSMOS 2251 DEB", "OBJECT_ID": "1993-036BNN", "EPOCH": "2025-12-08T06:43:08.752224", "MEAN_MOTION": 14.1213434, "ECCENTRICITY": 0.0158188, "INCLINATION": 74.0696, "RA_OF_ASC_NODE": 199.6661, "ARG_OF_PERICENTER": 257.3146, "MEAN_ANOMALY": 101.0271, "EPHEMERIS_TYPE": 0, "CLASSIFICATION_TYPE": "U", "NORAD_CAT_ID": 37533, "ELEMENT_SET_NO": 999, "REV_AT_EPOCH": 62858, "BSTAR": 0.0019209646, "MEAN_MOTION_DOT": 3.943e-05, "MEAN_MOTION_DDOT": 0}, "tle": {"line1": "1 37533U 93036BNN 25342.27996241  .00003943  00000+0  19210-2 0  9991", "line2": "2 37533  74.0696 199.6661 0158188 257.3146 101.0271 14.12134340628586"}}, "geometry": {"type": "Point", "coordinates": [14.80809486642721, 13.891292789196921]}}, {"type": "Feature", "properties": {"norad_id": 37535, "name": "COSMOS 2251 DEB", "group": "cosmos-2251-debris", "lat": 35.521542894179525, "lon": -110.67525307840465, "alt_km": 691.2267247703185, "timestamp": "2025-12-08T17:43:05.335813+00:00", "meta": {"OBJECT_NAME": "COSMOS 2251 DEB", "OBJECT_ID": "1993-036BNQ", "EPOCH": "2025-12-06T17:53:41.072064", "MEAN_MOTION": 14.58386464, "ECCENTRICITY": 0.00280664, "INCLINATION": 74.0246, "RA_OF_ASC_NODE": 84.9186, "ARG_OF_PERICENTER": 224.6272, "MEAN_ANOMALY": 260.8539, "EPHEMERIS_TYPE": 0, "CLASSIFICATION_TYPE": "U", "NORAD_CAT_ID": 37535, "ELEMENT_SET_NO": 999, "REV_AT_EPOCH": 85237, "BSTAR": 0.0015242667, "MEAN_MOTION_DOT": 7.078e-05, "MEAN_MOTION_DDOT": 0}, "tle": {"line1": "1 37535U 93036BNQ 25340.74561426  .00007078  00000+0  15243-2 0  9991", "line2": "2 37535  74.0246  84.9186 0028066 224.6272 260.8539 14.58386464852378"}}, "geometry": {"type": "Point", "coordinates": [-110.67525307840465, 35.521542894179525]}}, {"type": "Feature", "properties": {"norad_id": 37537, "name": "COSMOS 2251 DEB", "group": "cosmos-2251-debris", "lat": -73.26549874089015, "lon": -159.9640209851173, "alt_km": 800.6769006809727, "timestamp": "2025-12-08T17:43:05.335823+00:00", "meta": {"OBJECT_NAME": "COSMOS 2251 DEB", "OBJECT_ID": "1993-036BNS", "EPOCH": "2025-12-04T13:53:52.711584", "MEAN_MOTION": 14.3747249, "ECCENTRICITY": 0.0050092, "INCLINATION": 74.012, "RA_OF_ASC_NODE": 280.1661, "ARG_OF_PERICENTER": 62.5345, "MEAN_ANOMALY": 298.0888, "EPHEMERIS_TYPE": 0, "CLASSIFICATION_TYPE": "U", "NORAD_CAT_ID": 37537, "ELEMENT_SET_NO": 999, "REV_AT_EPOCH": 84916, "BSTAR": 0.00043114, "MEAN_MOTION_DOT": 1.283e-05, "MEAN_MOTION_DDOT": 0}, "tle": {"line1": "1 37537U 93036BNS 25338.57908231  .00001283  00000+0  43114-3 0  9991", "line2": "2 37537  74.0120 280.1661 0050092  62.5345 298.0888 14.37472490849168"}}, "geometry": {"type": "Point", "coordinates": [-159.9640209851173, -73.26549874089015]}}, {"type": "Feature", "properties": {"norad_id": 37546, "name": "COSMOS 2251 DEB", "group": "cosmos-2251-debris", "lat": 72.82229360759686, "lon": -142.06484045283776, "alt_km": 617.3667924220199, "timestamp": "2025-12-08T17:43:05.335834+00:00", "meta": {"OBJECT_NAME": "COSMOS 2251 DEB", "OBJECT_ID": "1993-036BPB", "EPOCH": "2025-12-07T02:21:17.919648", "MEAN_MOTION": 14.80155071, "ECCENTRICITY": 0.00062314, "INCLINATION": 74.021, "RA_OF_ASC_NODE": 109.1315, "ARG_OF_PERICENTER": 130.3601, "MEAN_ANOMALY": 229.812, "EPHEMERIS_TYPE": 0, "CLASSIFICATION_TYPE": "U", "NORAD_CAT_ID": 37546, "ELEMENT_SET_NO": 999, "REV_AT_EPOCH": 65804, "BSTAR": 0.0044829614, "MEAN_MOTION_DOT": 0.00034195, "MEAN_MOTION_DDOT": 0}, "tle": {"line1": "1 37546U 93036BPB 25341.09812407  .00034195  00000+0  44830-2 0  9994", "line2": "2 37546  74.0210 109.1315 0006231 130.3601 229.8120 14.80155071658046"}}, "geometry": {"type": "Point", "coordinates": [-142.06484045283776, 72.82229360759686]}}, {"type": "Feature", "properties": {"norad_id": 37959, "name": "COSMOS 2251 DEB", "group": "cosmos-2251-debris", "lat": -65.60803012795466, "lon": -76.20982082161049, "alt_km": 676.0153395938687, "timestamp": "2025-12-08T17:43:05.335844+00:00", "meta": {"OBJECT_NAME": "COSMOS 2251 DEB", "OBJECT_ID": "1993-036BPJ", "EPOCH": "2025-12-08T05:10:21.460224", "MEAN_MOTION": 14.58097227, "ECCENTRICITY": 0.00581443, "INCLINATION": 74.0114, "RA_OF_ASC_NODE": 65.5654, "ARG_OF_PERICENTER": 209.3318, "MEAN_ANOMALY": 178.7446, "EPHEMERIS_TYPE": 0, "CLASSIFICATION_TYPE": "U", "NORAD_CAT_ID": 37959, "ELEMENT_SET_NO": 999, "REV_AT_EPOCH": 80061, "BSTAR": 0.0011834989, "MEAN_MOTION_DOT": 5.551e-05, "MEAN_MOTION_DDOT": 0}, "tle": {"line1": "1 37959U 93036BPJ 25342.21552616  .00005551  00000+0  11835-2 0  9993", "line2": "2 37959  74.0114  65.5654 0058144 209.3318 178.7446 14.58097227800618"}}, "geometry": {"type": "Point", "coordinates": [-76.20982082161049, -65.60803012795466]}}, {"type": "Feature", "properties": {"norad_id": 37960, "name": "COSMOS 2251 DEB", "group": "cosmos-2251-debris", "lat": 63.94825640796095, "lon": -21.87648906015065, "alt_km": 895.6261098247742, "timestamp": "2025-12-08T17:43:05.335855+00:00", "meta": {"OBJECT_NAME": "COSMOS 2251 DEB", "OBJECT_ID": "1993-036BPK", "EPOCH": "2025-12-08T06:56:24.594720", "MEAN_MOTION": 14.0783693, "ECCENTRICITY": 0.02491272, "INCLINATION": 74.0585, "RA_OF_ASC_NODE": 194.6906, "ARG_OF_PERICENTER": 214.4492, "MEAN_ANOMALY": 144.0284, "EPHEMERIS_TYPE": 0, "CLASSIFICATION_TYPE": "U", "NORAD_CAT_ID": 37960, "ELEMENT_SET_NO": 999, "REV_AT_EPOCH": 77343, "BSTAR": 0.0012541408, "MEAN_MOTION_DOT": 2.8e-05, "MEAN_MOTION_DDOT": 0}, "tle": {"line1": "1 37960U 93036BPK 25342.28917355  .00002800  00000+0  12541-2 0  9996", "line2": "2 37960  74.0585 194.6906 0249127 214.4492 144.0284 14.07836930773430"}}, "geometry": {"type": "Point", "coordinates": [-21.87648906015065, 63.94825640796095]}}, {"type": "Feature", "properties": {"norad_id": 37961, "name": "COSMOS 2251 DEB", "group": "cosmos-2251-debris", "lat": -40.316598401777526, "lon": 130.665291916948, "alt_km": 707.3880071680014, "timestamp": "2025-12-08T17:43:05.335865+00:00", "meta": {"OBJECT_NAME": "COSMOS 2251 DEB", "OBJECT_ID": "1993-036BPL", "EPOCH": "2025-12-01T04:44:47.787648", "MEAN_MOTION": 14.57792656, "ECCENTRICITY": 0.0041244, "INCLINATION": 74.04, "RA_OF_ASC_NODE": 159.049, "ARG_OF_PERICENTER": 241.5465, "MEAN_ANOMALY": 118.1542, "EPHEMERIS_TYPE": 0, "CLASSIFICATION_TYPE": "U", "NORAD_CAT_ID": 37961, "ELEMENT_SET_NO": 999, "REV_AT_EPOCH": 79897, "BSTAR": 0.001072, "MEAN_MOTION_DOT": 4.934e-05, "MEAN_MOTION_DDOT": 0}, "tle": {"line1": "1 37961U 93036BPL 25335.19777532  .00004934  00000+0  10720-2 0  9997", "line2": "2 37961  74.0400 159.0490 0041244 241.5465 118.1542 14.57792656798977"}}, "geometry": {"type": "Point", "coordinates": [130.665291916948, -40.316598401777526]}}]}